{"type": "FeatureCollection", "features": [ {"type": "Feature", "properties": {"norad_id": 36255, "name": "FENGYUN 1C DEB", "group": "fengyun-1c-debris", "lat": -28.13488052110432, "lon": 88.54395712456716, "alt_km": 753.590830189034, "timestamp": "2025-12-18T10:51:26.096049+00:00", "meta": {"OBJECT_NAME": "FENGYUN 1C DEB", "OBJECT_ID": "1999-025DWG", "EPOCH": "2025-12-16T14:59:38.080320", "MEAN_MOTION": 14.36585765, "ECCENTRICITY": 0.00640168, "INCLINATION": 99.4346, "RA_OF_ASC_NODE": 271.6446, "ARG_OF_PERICENTER": 152.0698, "MEAN_ANOMALY": 328.9861, "EPHEMERIS_TYPE": 0, "CLASSIFICATION_TYPE": "U", "NORAD_CAT_ID": 36255, "ELEMENT_SET_NO": 999, "REV_AT_EPOCH": 64066, "BSTAR": 0.00053957267, "MEAN_MOTION_DOT": 1.573e-05, "MEAN_MOTION_DDOT": 0}, "tle": {"line1": "1 36255U 99025DWG 25350.62474630  .00001573  00000+0  53957-3 0  9990", "line2": "2 36255  99.4346 271.6446 0064016 152.0698 328.9861 14.36585765640665"}}, "geometry": {"type": "Point", "coordinates": [88.54395712456716, -28.13488052110432]}}, {"type": "Feature", "properties": {"norad_id": 36258, "name": "FENGYUN 1C DEB", "group": "fengyun-1c-debris", "lat": 32.88836442939807, "lon": 16.69046309119714, "alt_km": 609.0274186157512, "timestamp": "2025-12-18T10:51:26.096059+00:00", "meta": {"OBJECT_NAME": "FENGYUN 1C DEB", "OBJECT_ID": "1999-025DWK", "EPOCH": "2025-12-17T20:03:08.848512", "MEAN_MOTION": 14.74875595, "ECCENTRICITY": 0.01735916, "INCLINATION": 99.0866, "RA_OF_ASC_NODE": 21.9386, "ARG_OF_PERICENTER": 109.8966, "MEAN_ANOMALY": 252.1037, "EPHEMERIS_TYPE": 0, "CLASSIFICATION_TYPE": "U", "NORAD_CAT_ID": 36258, "ELEMENT_SET_NO": 999, "REV_AT_EPOCH": 90897, "BSTAR": 0.00024455391, "MEAN_MOTION_DOT": 2.019e-05, "MEAN_MOTION_DDOT": 0}, "tle": {"line1": "1 36258U 99025DWK 25351.83551908  .00002019  00000+0  24455-3 0  9998", "line2": "2 36258  99.0866  21.9386 0173591 109.8966 252.1037 14.74875595908976"}}, "geometry": {"type": "Point", "coordinates": [16.69046309119714, 32.88836442939807]}}, {"type": "Feature", "properties": {"norad_id": 36260, "name": "FENGYUN 1C DEB", "group": "fengyun-1c-debris", "lat": 44.3254201574015, "lon": -14.094349538425302, "alt_km": 848.0394886908925, "timestamp": "2025-12-18T10:51:26.096069+00:00", "meta": {"OBJECT_NAME": "FENGYUN 1C DEB", "OBJECT_ID": "1999-025DWM", "EPOCH": "2025-12-17T05:48:08.840736", "MEAN_MOTION": 14.15376352, "ECCENTRICITY": 0.00150973, "INCLINATION": 98.6612, "RA_OF_ASC_NODE": 353.2918, "ARG_OF_PERICENTER": 235.733, "MEAN_ANOMALY": 124.2415, "EPHEMERIS_TYPE": 0, "CLASSIFICATION_TYPE": "U", "NORAD_CAT_ID": 36260, "ELEMENT_SET_NO": 999, "REV_AT_EPOCH": 87872, "BSTAR": 0.00016667639, "MEAN_MOTION_DOT": 2.82e-06, "MEAN_MOTION_DDOT": 0}, "tle": {"line1": "1 36260U 99025DWM 25351.24176899  .00000282  00000+0  16668-3 0  9995", "line2": "2 36260  98.6612 353.2918 0015097 235.7330 124.2415 14.15376352878725"}}, "geometry": {"type": "Point", "coordinates": [-14.094349538425302, 44.3254201574015]}}, {"type": "Feature", "properties": {"norad_id": 36261, "name": "FENGYUN 1C DEB", "group": "fengyun-1c-debris", "lat": 5.053833749704131, "lon": 66.431787577568, "alt_km": 1185.4525509517362, "timestamp": "2025-12-18T10:51:26.096079+00:00", "meta": {"OBJECT_NAME": "FENGYUN 1C DEB", "OBJECT_ID": "1999-025DWN", "EPOCH": "2025-12-13T22:57:12.812256", "MEAN_MOTION": 13.45480991, "ECCENTRICITY": 0.03556009, "INCLINATION": 101.3652, "RA_OF_ASC_NODE": 240.3219, "ARG_OF_PERICENTER": 72.4151, "MEAN_ANOMALY": 291.5485, "EPHEMERIS_TYPE": 0, "CLASSIFICATION_TYPE": "U", "NORAD_CAT_ID": 36261, "ELEMENT_SET_NO": 999, "REV_AT_EPOCH": 84449, "BSTAR": 0.00068349955, "MEAN_MOTION_DOT": 5.4e-06, "MEAN_MOTION_DDOT": 0}, "tle": {"line1": "1 36261U 99025DWN 25347.95639829  .00000540  00000+0  68350-3 0  9998", "line2": "2 36261 101.3652 240.3219 0355600  72.4151 291.5485 13.45480991844495"}}, "geometry": {"type": "Point", "coordinates": [66.431787577568, 5.053833749704131]}}, {"type": "Feature", "properties": {"norad_id": 36262, "name": "FENGYUN 1C DEB", "group": "fengyun-1c-debris", "lat": 79.89799410756116, "lon": 115.43641166679235, "alt_km": 832.8169072243081, "timestamp": "2025-12-18T10:51:26.096090+00:00", "meta": {"OBJECT_NAME": "FENGYUN 1C DEB", "OBJECT_ID": "1999-025DWP", "EPOCH": "2025-12-16T21:24:39.631968", "MEAN_MOTION": 14.2781161, "ECCENTRICITY": 0.00597022, "INCLINATION": 98.9611, "RA_OF_ASC_NODE": 231.5054, "ARG_OF_PERICENTER": 263.2226, "MEAN_ANOMALY": 96.2158, "EPHEMERIS_TYPE": 0, "CLASSIFICATION_TYPE": "U", "NORAD_CAT_ID": 36262, "ELEMENT_SET_NO": 999, "REV_AT_EPOCH": 89556, "BSTAR": 0.00025429825, "MEAN_MOTION_DOT": 5.93e-06, "MEAN_MOTION_DDOT": 0}, "tle": {"line1": "1 36262U 99025DWP 25350.89212537  .00000593  00000+0  25430-3 0  9999", "line2": "2 36262  98.9611 231.5054 0059702 263.2226  96.2158 14.27811610895566"}}, "geometry": {"type": "Point", "coordinates": [115.43641166679235, 79.89799410756116]}}, {"type": "Feature", "properties": {"norad_id": 36263, "name": "FENGYUN 1C DEB", "group": "fengyun-1c-debris", "lat": -80.49430034823843, "lon": -54.94124512891668, "alt_km": 723.706911874131, "timestamp": "2025-12-18T10:51:26.096101+00:00", "meta": {"OBJECT_NAME": "FENGYUN 1C DEB", "OBJECT_ID": "1999-025DWQ", "EPOCH": "2025-12-14T02:36:43.363008", "MEAN_MOTION": 14.45667269, "ECCENTRICITY": 0.00359904, "INCLINATION": 99.0019, "RA_OF_ASC_NODE": 229.2427, "ARG_OF_PERICENTER": 260.9773, "MEAN_ANOMALY": 98.7343, "EPHEMERIS_TYPE": 0, "CLASSIFICATION_TYPE": "U", "NORAD_CAT_ID": 36263, "ELEMENT_SET_NO": 999, "REV_AT_EPOCH": 88005, "BSTAR": 0.0021495067, "MEAN_MOTION_DOT": 7.623e-05, "MEAN_MOTION_DDOT": 0}, "tle": {"line1": "1 36263U 99025DWQ 25348.10883522  .00007623  00000+0  21495-2 0  9996", "line2": "2 36263  99.0019 229.2427 0035990 260.9773  98.7343 14.45667269880053"}}, "geometry": {"type": "Point", "coordinates": [-54.94124512891668, -80.49430034823843]}}, {"type": "Feature", "properties": {"norad_id": 36267, "name": "FENGYUN 1C DEB", "group": "fengyun-1c-debris", "lat": 77.70200264447162, "lon": 163.25440398869875, "alt_km": 862.4074061163501, "timestamp": "2025-12-18T10:51:26.096112+00:00", "meta": {"OBJECT_NAME": "FENGYUN 1C DEB", "OBJECT_ID": "1999-025DWU", "EPOCH": "2025-12-17T02:18:42.156000", "MEAN_MOTION": 14.09111328, "ECCENTRICITY": 0.0126413, "INCLINATION": 98.559, "RA_OF_ASC_NODE": 298.2704, "ARG_OF_PERICENTER": 197.9977, "MEAN_ANOMALY": 227.0895, "EPHEMERIS_TYPE": 0, "CLASSIFICATION_TYPE": "U", "NORAD_CAT_ID": 36267, "ELEMENT_SET_NO": 999, "REV_AT_EPOCH": 86591, "BSTAR": 0.00083999853, "MEAN_MOTION_DOT": 1.528e-05, "MEAN_MOTION_DDOT": 0}, "tle": {"line1": "1 36267U 99025DWU 25351.09632125  .00001528  00000+0  84000-3 0  9993", "line2": "2 36267  98.5590 298.2704 0126413 197.9977 227.0895 14.09111328865912"}}, "geometry": {"type": "Point", "coordinates": [163.25440398869875, 77.70200264447162]}}, {"type": "Feature", "properties": {"norad_id": 36269, "name": "FENGYUN 1C DEB", "group": "fengyun-1c-debris", "lat": -39.12901210389329, "lon": 107.15367936686867, "alt_km": 685.119715362358, "timestamp": "2025-12-18T10:51:26.096122+00:00", "meta": {"OBJECT_NAME": "FENGYUN 1C DEB", "OBJECT_ID": "1999-025DWW", "EPOCH": "2025-12-14T01:28:51.707712", "MEAN_MOTION": 14.27043075, "ECCENTRICITY": 0.02331074, "INCLINATION": 99.1079, "RA_OF_ASC_NODE": 290.0784, "ARG_OF_PERICENTER": 275.9651, "MEAN_ANOMALY": 81.5008, "EPHEMERIS_TYPE": 0, "CLASSIFICATION_TYPE": "U", "NORAD_CAT_ID": 36269, "ELEMENT_SET_NO": 999, "REV_AT_EPOCH": 87735, "BSTAR": 0.00079666975, "MEAN_MOTION_DOT": 2.532e-05, "MEAN_MOTION_DDOT": 0}, "tle": {"line1": "1 36269U 99025DWW 25348.06170958  .00002532  00000+0  79667-3 0  9998", "line2": "2 36269  99.1079 290.0784 0233107 275.9651  81.5008 14.27043075877359"}}, "geometry": {"type": "Point", "coordinates": [107.15367936686867, -39.12901210389329]}}, {"type": "Feature", "properties": {"norad_id": 36272, "name": "FENGYUN 1C DEB", "group": "fengyun-1c-debris", "lat": 72.49703070228632, "lon": 79.58412044263859, "alt_km": 928.5395993476977, "timestamp": "2025-12-18T10:51:26.096133+00:00", "meta": {"OBJECT_NAME": "FENGYUN 1C DEB", "OBJECT_ID": "1999-025DWZ", "EPOCH": "2025-12-15T09:29:34.780416", "MEAN_MOTION": 14.17259115, "ECCENTRICITY": 0.01679127, "INCLINATION": 99.1362, "RA_OF_ASC_NODE": 225.7589, "ARG_OF_PERICENTER": 260.5869, "MEAN_ANOMALY": 97.6289, "EPHEMERIS_TYPE": 0, "CLASSIFICATION_TYPE": "U", "NORAD_CAT_ID": 36272, "ELEMENT_SET_NO": 999, "REV_AT_EPOCH": 63654, "BSTAR": 0.00052291356, "MEAN_MOTION_DOT": 1.164e-05, "MEAN_MOTION_DDOT": 0}, "tle": {"line1": "1 36272U 99025DWZ 25349.39554144  .00001164  00000+0  52291-3 0  9996", "line2": "2 36272  99.1362 225.7589 0167912 260.5869  97.6289 14.17259115636543"}}, "geometry": {"type": "Point", "coordinates": [79.58412044263859, 72.49703070228632]}}, {"type": "Feature", "properties": {"norad_id": 36273, "name": "FENGYUN 1C DEB", "group": "fengyun-1c-debris", "lat": 74.03362270566049, "lon": -173.93402689653294, "alt_km": 846.5624573258247, "timestamp": "2025-12-18T10:51:26.096143+00:00", "meta": {"OBJECT_NAME": "FENGYUN 1C DEB", "OBJECT_ID": "1999-025DXA", "EPOCH": "2025-12-10T21:07:00.418080", "MEAN_MOTION": 14.16564043, "ECCENTRICITY": 0.0096501, "INCLINATION": 99.6045, "RA_OF_ASC_NODE": 214.1863, "ARG_OF_PERICENTER": 353.8475, "MEAN_ANOMALY": 6.1504, "EPHEMERIS_TYPE": 0, "CLASSIFICATION_TYPE": "U", "NORAD_CAT_ID": 36273, "ELEMENT_SET_NO": 999, "REV_AT_EPOCH": 66207, "BSTAR": 0.00042955, "MEAN_MOTION_DOT": 8.45e-06, "MEAN_MOTION_DDOT": 0}, "tle": {"line1": "1 36273U 99025DXA 25344.87986595  .00000845  00000+0  42955-3 0  9995", "line2": "2 36273  99.6045 214.1863 0096501 353.8475   6.1504 14.16564043662078"}}, "geometry": {"type": "Point", "coordinates": [-173.93402689653294, 74.03362270566049]}}]}